$$SOE
2460714.500000000, A.D. 2025-Feb-08 00:00:00.0000, 3.661617551088536E+08, -1.393204777896972E+08, -6.432013984829754E+06,
2460721.500000000, A.D. 2025-Feb-15 00:00:00.0000, 3.660029547387773E+08, -1.280386322558053E+08, -4.667046579092748E+06,
2460728.500000000, A.D. 2025-Feb-22 00:00:00.0000, 3.655394334073312E+08, -1.166502774506717E+08, -2.898201352990195E+06,
2460735.500000000, A.D. 2025-Mar-01 00:00:00.0000, 3.647617958802992E+08, -1.051617742502704E+08, -1.126874040312707E+06,
2460742.500000000, A.D. 2025-Mar-08 00:00:00.0000, 3.636604698480356E+08, -9.358004332837406E+07, 6.454440553454906E+05,
2460749.500000000, A.D. 2025-Mar-15 00:00:00.0000, 3.622257210925618E+08, -8.191260494581047E+07, 2.417160319480158E+06,
2460756.500000000, A.D. 2025-Mar-22 00:00:00.0000, 3.604476702007254E+08, -7.016762239668460E+07, 4.186574980187401E+06,
2460763.500000000, A.D. 2025-Mar-29 00:00:00.0000, 3.583163149297022E+08, -5.835394987645967E+07, 5.951874793586941E+06,
2460770.500000000, A.D. 2025-Apr-05 00:00:00.0000, 3.558215591317307E+08, -4.648118149448018E+07, 7.711126533507057E+06,
2460777.500000000, A.D. 2025-Apr-12 00:00:00.0000, 3.529532469497064E+08, -3.455970111604189E+07, 9.462270530126680E+06,
2460784.500000000, A.D. 2025-Apr-19 00:00:00.0000, 3.497012027856508E+08, -2.260073361734036E+07, 1.120311427828050E+07,
2460791.500000000, A.D. 2025-Apr-26 00:00:00.0000, 3.460552780497461E+08, -1.061639735253107E+07, 1.293132616806801E+07,
2460798.500000000, A.D. 2025-May-03 00:00:00.0000, 3.420054055797341E+08, 1.380242715892326E+06, 1.464442944451250E+07,
2460805.500000000, A.D. 2025-May-10 00:00:00.0000, 3.375416625648163E+08, 1.337512190920506E+07, 1.633979653442293E+07,
2460812.500000000, A.D. 2025-May-17 00:00:00.0000, 3.326543428302459E+08, 2.535312355371569E+07, 1.801464390132646E+07,
2460819.500000000, A.D. 2025-May-24 00:00:00.0000, 3.273340394675786E+08, 3.729802851803592E+07, 1.966602760591509E+07,
2460826.500000000, A.D. 2025-May-31 00:00:00.0000, 3.215717389974332E+08, 4.919246813576285E+07, 2.129083978893860E+07,
2460833.500000000, A.D. 2025-Jun-07 00:00:00.0000, 3.153589273511214E+08, 6.101788322296401E+07, 2.288580647587207E+07,
2460840.500000000, A.D. 2025-Jun-14 00:00:00.0000, 3.086877058798113E+08, 7.275449029575673E+07, 2.444748716809294E+07,
2460847.500000000, A.D. 2025-Jun-21 00:00:00.0000, 3.015509190070325E+08, 8.438125375634438E+07, 2.597227618007870E+07,
2460854.500000000, A.D. 2025-Jun-28 00:00:00.0000, 2.939422967883338E+08, 9.587586812966295E+07, 2.745640594949489E+07,
2460861.500000000, A.D. 2025-Jul-05 00:00:00.0000, 2.858566106636573E+08, 1.072147551042989E+08, 2.889595303465834E+07,
2460868.500000000, A.D. 2025-Jul-12 00:00:00.0000, 2.772898405989903E+08, 1.183730774198315E+08, 3.028684726487765E+07,
2460875.500000000, A.D. 2025-Jul-19 00:00:00.0000, 2.682393526794083E+08, 1.293247720737255E+08, 3.162488441213472E+07,
2460882.500000000, A.D. 2025-Jul-26 00:00:00.0000, 2.587040856183732E+08, 1.400426059650415E+08, 3.290574278730965E+07,
2460889.500000000, A.D. 2025-Aug-02 00:00:00.0000, 2.486847437854697E+08, 1.504982571888145E+08, 3.412500415563242E+07,
2460896.500000000, A.D. 2025-Aug-09 00:00:00.0000, 2.381839935035233E+08, 1.606624250378892E+08, 3.527817931084388E+07,
2460903.500000000, A.D. 2025-Aug-16 00:00:00.0000, 2.272066585456582E+08, 1.705049714307503E+08, 3.636073855258735E+07,
2460910.500000000, A.D. 2025-Aug-23 00:00:00.0000, 2.157599100880316E+08, 1.799950960705754E+08, 3.736814718308219E+07,
2460917.500000000, A.D. 2025-Aug-30 00:00:00.0000, 2.038534455579725E+08, 1.891015475940751E+08, 3.829590604431526E+07,
2460924.500000000, A.D. 2025-Sep-06 00:00:00.0000, 1.914996482932627E+08, 1.977928722259576E+08, 3.913959710931513E+07,
2460931.500000000, A.D. 2025-Sep-13 00:00:00.0000, 1.787137190580011E+08, 2.060376966924855E+08, 3.989493365566933E+07,
2460938.500000000, A.D. 2025-Sep-20 00:00:00.0000, 1.655137750698654E+08, 2.138050414538145E+08, 4.055781391155407E+07,
2460945.500000000, A.D. 2025-Sep-27 00:00:00.0000, 1.519209099509264E+08, 2.210646633062038E+08, 4.112437737178117E+07,
2460952.500000000, A.D. 2025-Oct-04 00:00:00.0000, 1.379592053286262E+08, 2.277874219714773E+08, 4.159106277479401E+07,
2460959.500000000, A.D. 2025-Oct-11 00:00:00.0000, 1.236556873615490E+08, 2.339456619427471E+08, 4.195466620583597E+07,
2460966.500000000, A.D. 2025-Oct-18 00:00:00.0000, 1.090402235520658E+08, 2.395135997770305E+08, 4.221239757232165E+07,
2460973.500000000, A.D. 2025-Oct-25 00:00:00.0000, 9.414535700422277E+07, 2.444677058464715E+08, 4.236193358608644E+07,
2460980.500000000, A.D. 2025-Nov-01 00:00:00.0000, 7.900607757443574E+07, 2.487870685462717E+08, 4.240146533782354E+07,
2460987.500000000, A.D. 2025-Nov-08 00:00:00.0000, 6.365953207676112E+07, 2.524537284854640E+08, 4.232973859377569E+07,
2460994.500000000, A.D. 2025-Nov-15 00:00:00.0000, 4.814467869544938E+07, 2.554529704383958E+08, 4.214608509761409E+07,
2461001.500000000, A.D. 2025-Nov-22 00:00:00.0000, 3.250189383820987E+07, 2.577735621538157E+08, 4.185044344311571E+07,
2461008.500000000, A.D. 2025-Nov-29 00:00:00.0000, 1.677254165854416E+07, 2.594079318246622E+08, 4.144336859861800E+07,
2461015.500000000, A.D. 2025-Dec-06 00:00:00.0000, 9.985164137747991E+05, 2.603522771805297E+08, 4.092602972096646E+07,
2461022.500000000, A.D. 2025-Dec-13 00:00:00.0000, -1.477822811232488E+07, 2.606065988295843E+08, 4.030019589450249E+07,
2461029.500000000, A.D. 2025-Dec-20 00:00:00.0000, -3.051614429330279E+07, 2.601746581151362E+08, 3.956821004679194E+07,
2461036.500000000, A.D. 2025-Dec-27 00:00:00.0000, -4.617453845238904E+07, 2.590638645714504E+08, 3.873295233306248E+07,
2461043.500000000, A.D. 2026-Jan-03 00:00:00.0000, -6.171398926923455E+07, 2.572850978394489E+08, 3.779779447022222E+07,
2461050.500000000, A.D. 2026-Jan-10 00:00:00.0000, -7.709672557393044E+07, 2.548524714157027E+08, 3.676654668046485E+07,
2461057.500000000, A.D. 2026-Jan-17 00:00:00.0000, -9.228695453737801E+07, 2.517830481733520E+08, 3.564339915563403E+07,
2461064.500000000, A.D. 2026-Jan-24 00:00:00.0000, -1.072511340990780E+08, 2.480965189798899E+08, 3.443286006973016E+07,
2461071.500000000, A.D. 2026-Jan-31 00:00:00.0000, -1.219581862994845E+08, 2.438148562488961E+08, 3.313969214355470E+07,
2461078.500000000, A.D. 2026-Feb-07 00:00:00.0000, -1.363796508040217E+08, 2.389619540622297E+08, 3.176884962426075E+07,
2461085.500000000, A.D. 2026-Feb-14 00:00:00.0000, -1.504897800920680E+08, 2.335632657891149E+08, 3.032541730780004E+07,
2461092.500000000, A.D. 2026-Feb-21 00:00:00.0000, -1.642655796310478E+08, 2.276454494997510E+08, 2.881455298892398E+07,
2461099.500000000, A.D. 2026-Feb-28 00:00:00.0000, -1.776867993487325E+08, 2.212360305147213E+08, 2.724143459750603E+07,
2461106.500000000, A.D. 2026-Mar-07 00:00:00.0000, -1.907358847207610E+08, 2.143630856381430E+08, 2.561121280380592E+07,
2461113.500000000, A.D. 2026-Mar-14 00:00:00.0000, -2.033978915044031E+08, 2.070549515001020E+08, 2.392896910325208E+07,
2461120.500000000, A.D. 2026-Mar-21 00:00:00.0000, -2.156603693092727E+08, 1.993399630002624E+08, 2.219967964659353E+07,
2461127.500000000, A.D. 2026-Mar-28 00:00:00.0000, -2.275132228230764E+08, 1.912462245150765E+08, 2.042818505418376E+07,
2461134.500000000, A.D. 2026-Apr-04 00:00:00.0000, -2.389485576450092E+08, 1.828014132669829E+08, 1.861916597876399E+07,
2461141.500000000, A.D. 2026-Apr-11 00:00:00.0000, -2.499605161732588E+08, 1.740326138070874E+08, 1.677712401266735E+07,
2461148.500000000, A.D. 2026-Apr-18 00:00:00.0000, -2.605451083820285E+08, 1.649661821120144E+08, 1.490636748000387E+07,
2461155.500000000, A.D. 2026-Apr-25 00:00:00.0000, -2.707000416642824E+08, 1.556276372406957E+08, 1.301100160856228E+07,
2461162.500000000, A.D. 2026-May-02 00:00:00.0000, -2.804245531617801E+08, 1.460415780760765E+08, 1.109492254701596E+07,
2461169.500000000, A.D. 2026-May-09 00:00:00.0000, -2.897192471800573E+08, 1.362316224343318E+08, 9.161814679527424E+06,
2461176.500000000, A.D. 2026-May-16 00:00:00.0000, -2.985859393659781E+08, 1.262203659621887E+08, 7.215150700487025E+06,
2461183.500000000, A.D. 2026-May-23 00:00:00.0000, -3.070275090615985E+08, 1.160293591679397E+08, 5.258194045095608E+06,
2461190.500000000, A.D. 2026-May-30 00:00:00.0000, -3.150477628728673E+08, 1.056791003483801E+08, 3.294003449264884E+06,
2461197.500000000, A.D. 2026-Jun-06 00:00:00.0000, -3.226513103089829E+08, 9.518903875555548E+07, 1.325439002319284E+06,
2461204.500000000, A.D. 2026-Jun-13 00:00:00.0000, -3.298434480148086E+08, 8.457758602361727E+07, -6.448309772494175E+05,
2461211.500000000, A.D. 2026-Jun-20 00:00:00.0000, -3.366300530172155E+08, 7.386213681454711E+07, -2.614322259985451E+06,
2461218.500000000, A.D. 2026-Jun-27 00:00:00.0000, -3.430174864206895E+08, 6.305909660389657E+07, -4.580726348794267E+06,
2461225.500000000, A.D. 2026-Jul-04 00:00:00.0000, -3.490125071483181E+08, 5.218391433048509E+07, -6.541901730306566E+06,
2461232.500000000, A.D. 2026-Jul-11 00:00:00.0000, -3.546221949572914E+08, 4.125111849534892E+07, -8.495864950563151E+06,
2461239.500000000, A.D. 2026-Jul-18 00:00:00.0000, -3.598538820445020E+08, 3.027435564684029E+07, -1.044078166959982E+07,
2461246.500000000, A.D. 2026-Jul-25 00:00:00.0000, -3.647150925865741E+08, 1.926643034011220E+07, -1.237495781509637E+07,
2461253.500000000, A.D. 2026-Aug-01 00:00:00.0000, -3.692134895221249E+08, 8.239345764878326E+06, -1.429683093567756E+07,
2461260.500000000, A.D. 2026-Aug-08 00:00:00.0000, -3.733568277233836E+08, -2.795655613386715E+06, -1.620496184677131E+07,
2461267.500000000, A.D. 2026-Aug-15 00:00:00.0000, -3.771529125231277E+08, -1.382805144563875E+07, -1.809802662207747E+07,
2461274.500000000, A.D. 2026-Aug-22 00:00:00.0000, -3.806095637668302E+08, -2.484799809619177E+07, -1.997480879749864E+07,
2461281.500000000, A.D. 2026-Aug-29 00:00:00.0000, -3.837345871236118E+08, -3.584629012124205E+07, -2.183419171395097E+07,
$$EOE